[{"OBJECT_NAME":"SNUGLITE","OBJECT_ID":"2018-099AC","EPOCH":"2026-03-09T16:09:06.907968","MEAN_MOTION":15.24835996,"ECCENTRICITY":0.00013388,"INCLINATION":97.4003,"RA_OF_ASC_NODE":124.0343,"ARG_OF_PERICENTER":280.5957,"MEAN_ANOMALY":79.5129,"EPHEMERIS_TYPE":0,"CLASSIFICATION_TYPE":"U","NORAD_CAT_ID":43784,"ELEMENT_SET_NO":999,"REV_AT_EPOCH":39814,"BSTAR":0.00055962727,"MEAN_MOTION_DOT":0.00013838,"MEAN_MOTION_DDOT":0},{"OBJECT_NAME":"STARLINK-1063","OBJECT_ID":"2019-074BH","EPOCH":"2026-03-09T18:03:14.732640","MEAN_MOTION":15.29959368,"ECCENTRICITY":0.00012189,"INCLINATION":53.1603,"RA_OF_ASC_NODE":219.104,"ARG_OF_PERICENTER":60.1573,"MEAN_ANOMALY":299.9548,"EPHEMERIS_TYPE":0,"CLASSIFICATION_TYPE":"U","NORAD_CAT_ID":44768,"ELEMENT_SET_NO":999,"REV_AT_EPOCH":34832,"BSTAR":-0.029857537,"MEAN_MOTION_DOT":-0.00812325,"MEAN_MOTION_DDOT":0}]
