SNUGLITE                
1 43784U 18099AC  26068.67299661  .00013838  00000+0  55963-3 0  9994
2 43784  97.4003 124.0343 0001339 280.5957  79.5129 15.24835996398140
STARLINK-1063           
1 44768U 19074BH  26068.75225384 -.00812325  00000+0 -29858-1 0  9993
2 44768  53.1603 219.1040 0001219  60.1573 299.9548 15.29959368348324
